{
  "type": "FeatureCollection",
  "features": [
    {
      "type": "Feature",
      "properties": {
        "norad_id": 22675,
        "name": "COSMOS 2251",
        "group": "cosmos-2251-debris",
        "lat": 15.943959635200484,
        "lon": 117.35336554807193,
        "alt_km": 794.8249506741386,
        "timestamp": "2025-12-20T07:33:51.205359+00:00",
        "meta_object_name": "COSMOS 2251",
        "meta_object_id": "1993-036A",
        "meta_epoch": "2025-12-19T05:40:39.578880",
        "meta_mean_motion": 14.33206643,
        "meta_eccentricity": 0.0024218,
        "meta_inclination": 74.0399,
        "meta_ra_of_asc_node": 304.0128,
        "meta_arg_of_pericenter": 24.4587,
        "meta_mean_anomaly": 335.7708,
        "meta_ephemeris_type": 0,
        "meta_classification_type": "U",
        "meta_norad_cat_id": 22675,
        "meta_element_set_no": 999,
        "meta_rev_at_epoch": 69866,
        "meta_bstar": 3.4708e-05,
        "meta_mean_motion_dot": 7e-07,
        "meta_mean_motion_ddot": 0,
        "tle_line1": "1 22675U 93036A   25353.23656920  .00000070  00000+0  34708-4 0  9996",
        "tle_line2": "2 22675  74.0399 304.0128 0024218  24.4587 335.7708 14.33206643698661"
      },
      "geometry": {
        "type": "Point",
        "coordinates": [
          117.35336554807193,
          15.943959635200484
        ]
      }
    },
    {
      "type": "Feature",
      "properties": {
        "norad_id": 33757,
        "name": "COSMOS 2251 DEB",
        "group": "cosmos-2251-debris",
        "lat": -4.73694974793657,
        "lon": 131.13930597733554,
        "alt_km": 794.4286957334516,
        "timestamp": "2025-12-20T07:33:51.205383+00:00",
        "meta_object_name": "COSMOS 2251 DEB",
        "meta_object_id": "1993-036E",
        "meta_epoch": "2025-12-19T22:35:03.314112",
        "meta_mean_motion": 14.32582723,
        "meta_eccentricity": 0.00155071,
        "meta_inclination": 74.0373,
        "meta_ra_of_asc_node": 310.463,
        "meta_arg_of_pericenter": 322.5793,
        "meta_mean_anomaly": 93.4452,
        "meta_ephemeris_type": 0,
        "meta_classification_type": "U",
        "meta_norad_cat_id": 33757,
        "meta_element_set_no": 999,
        "meta_rev_at_epoch": 88099,
        "meta_bstar": 3.0028797e-05,
        "meta_mean_motion_dot": 5.5e-07,
        "meta_mean_motion_ddot": 0,
        "tle_line1": "1 33757U 93036E   25353.94101058  .00000055  00000+0  30029-4 0  9999",
        "tle_line2": "2 33757  74.0373 310.4630 0015507 322.5793  93.4452 14.32582723880995"
      },
      "geometry": {
        "type": "Point",
        "coordinates": [
          131.13930597733554,
          -4.73694974793657
        ]
      }
    },
    {
      "type": "Feature",
      "properties": {
        "norad_id": 33758,
        "name": "COSMOS 2251 DEB",
        "group": "cosmos-2251-debris",
        "lat": -65.31455186799906,
        "lon": 162.21336273949652,
        "alt_km": 715.8431705963903,
        "timestamp": "2025-12-20T07:33:51.205397+00:00",
        "meta_object_name": "COSMOS 2251 DEB",
        "meta_object_id": "1993-036F",
        "meta_epoch": "2025-12-19T22:30:12.186720",
        "meta_mean_motion": 14.51633127,
        "meta_eccentricity": 0.00172588,
        "meta_inclination": 74.0265,
        "meta_ra_of_asc_node": 201.472,
        "meta_arg_of_pericenter": 267.6714,
        "meta_mean_anomaly": 209.2111,
        "meta_ephemeris_type": 0,
        "meta_classification_type": "U",
        "meta_norad_cat_id": 33758,
        "meta_element_set_no": 999,
        "meta_rev_at_epoch": 88409,
        "meta_bstar": 0.00049671582,
        "meta_mean_motion_dot": 1.967e-05,
        "meta_mean_motion_ddot": 0,
        "tle_line1": "1 33758U 93036F   25353.93764105  .00001967  00000+0  49672-3 0  9993",
        "tle_line2": "2 33758  74.0265 201.4720 0017258 267.6714 209.2111 14.51633127884092"
      },
      "geometry": {
        "type": "Point",
        "coordinates": [
          162.21336273949652,
          -65.31455186799906
        ]
      }
    },
    {
      "type": "Feature",
      "properties": {
        "norad_id": 33760,
        "name": "COSMOS 2251 DEB",
        "group": "cosmos-2251-debris",
        "lat": 22.35563463908861,
        "lon": 80.79153482380924,
        "alt_km": 784.947971574642,
        "timestamp": "2025-12-20T07:33:51.205409+00:00",
        "meta_object_name": "COSMOS 2251 DEB",
        "meta_object_id": "1993-036H",
        "meta_epoch": "2025-12-19T22:51:20.912832",
        "meta_mean_motion": 14.35677015,
        "meta_eccentricity": 0.00202207,
        "meta_inclination": 74.0322,
        "meta_ra_of_asc_node": 268.2197,
        "meta_arg_of_pericenter": 4.9385,
        "meta_mean_anomaly": 76.9297,
        "meta_ephemeris_type": 0,
        "meta_classification_type": "U",
        "meta_norad_cat_id": 33760,
        "meta_element_set_no": 999,
        "meta_rev_at_epoch": 88228,
        "meta_bstar": 7.4851709e-05,
        "meta_mean_motion_dot": 1.9e-06,
        "meta_mean_motion_ddot": 0,
        "tle_line1": "1 33760U 93036H   25353.95232538  .00000190  00000+0  74852-4 0  9994",
        "tle_line2": "2 33760  74.0322 268.2197 0020220   4.9385  76.9297 14.35677015882286"
      },
      "geometry": {
        "type": "Point",
        "coordinates": [
          80.79153482380924,
          22.35563463908861
        ]
      }
    },
    {
      "type": "Feature",
      "properties": {
        "norad_id": 33761,
        "name": "COSMOS 2251 DEB",
        "group": "cosmos-2251-debris",
        "lat": -73.82676788055221,
        "lon": 157.34125986896407,
        "alt_km": 745.2055003001469,
        "timestamp": "2025-12-20T07:33:51.205421+00:00",
        "meta_object_name": "COSMOS 2251 DEB",
        "meta_object_id": "1993-036J",
        "meta_epoch": "2025-12-19T11:09:18.014112",
        "meta_mean_motion": 14.42563129,
        "meta_eccentricity": 0.0023215,
        "meta_inclination": 74.0354,
        "meta_ra_of_asc_node": 239.6857,
        "meta_arg_of_pericenter": 319.002,
        "meta_mean_anomaly": 219.2979,
        "meta_ephemeris_type": 0,
        "meta_classification_type": "U",
        "meta_norad_cat_id": 33761,
        "meta_element_set_no": 999,
        "meta_rev_at_epoch": 88331,
        "meta_bstar": 0.00029325,
        "meta_mean_motion_dot": 9.5e-06,
        "meta_mean_motion_ddot": 0,
        "tle_line1": "1 33761U 93036J   25353.46479183  .00000950  00000+0  29325-3 0  9998",
        "tle_line2": "2 33761  74.0354 239.6857 0023215 319.0020 219.2979 14.42563129883312"
      },
      "geometry": {
        "type": "Point",
        "coordinates": [
          157.34125986896407,
          -73.82676788055221
        ]
      }
    },
    {
      "type": "Feature",
      "properties": {
        "norad_id": 33762,
        "name": "COSMOS 2251 DEB",
        "group": "cosmos-2251-debris",
        "lat": 37.87666999006297,
        "lon": -50.96334133848038,
        "alt_km": 768.466298791328,
        "timestamp": "2025-12-20T07:33:51.205432+00:00",
        "meta_object_name": "COSMOS 2251 DEB",
        "meta_object_id": "1993-036K",
        "meta_epoch": "2025-12-19T23:20:18.564576",
        "meta_mean_motion": 14.33665772,
        "meta_eccentricity": 0.00153087,
        "meta_inclination": 74.042,
        "meta_ra_of_asc_node": 296.8033,
        "meta_arg_of_pericenter": 356.5119,
        "meta_mean_anomaly": 74.9044,
        "meta_ephemeris_type": 0,
        "meta_classification_type": "U",
        "meta_norad_cat_id": 33762,
        "meta_element_set_no": 999,
        "meta_rev_at_epoch": 88151,
        "meta_bstar": 3.4811721e-05,
        "meta_mean_motion_dot": 7.1e-07,
        "meta_mean_motion_ddot": 0,
        "tle_line1": "1 33762U 93036K   25353.97243709  .00000071  00000+0  34812-4 0  9990",
        "tle_line2": "2 33762  74.0420 296.8033 0015308 356.5119  74.9044 14.33665772881513"
      },
      "geometry": {
        "type": "Point",
        "coordinates": [
          -50.96334133848038,
          37.87666999006297
        ]
      }
    },
    {
      "type": "Feature",
      "properties": {
        "norad_id": 33764,
        "name": "COSMOS 2251 DEB",
        "group": "cosmos-2251-debris",
        "lat": -20.07485604206248,
        "lon": -107.3365316596611,
        "alt_km": 772.305317568922,
        "timestamp": "2025-12-20T07:33:51.205443+00:00",
        "meta_object_name": "COSMOS 2251 DEB",
        "meta_object_id": "1993-036M",
        "meta_epoch": "2025-12-19T20:16:42.098016",
        "meta_mean_motion": 14.39524256,
        "meta_eccentricity": 0.00236206,
        "meta_inclination": 74.0335,
        "meta_ra_of_asc_node": 259.5372,
        "meta_arg_of_pericenter": 223.9642,
        "meta_mean_anomaly": 199.0275,
        "meta_ephemeris_type": 0,
        "meta_classification_type": "U",
        "meta_norad_cat_id": 33764,
        "meta_element_set_no": 999,
        "meta_rev_at_epoch": 88259,
        "meta_bstar": 0.00021977187,
        "meta_mean_motion_dot": 6.61e-06,
        "meta_mean_motion_ddot": 0,
        "tle_line1": "1 33764U 93036M   25353.84493169  .00000661  00000+0  21977-3 0  9997",
        "tle_line2": "2 33764  74.0335 259.5372 0023620 223.9642 199.0275 14.39524256882597"
      },
      "geometry": {
        "type": "Point",
        "coordinates": [
          -107.3365316596611,
          -20.07485604206248
        ]
      }
    }
  ]
}